RADUGA 1 [-]            
1 08513U 75123A   19291.58117969 -.00000185  00000-0  00000+0 0  9997
2 08513   8.8278 301.5785 0004556 208.8806 170.2633  1.00261030170545
RADUGA 2 [-]            
1 09416U 76092A   19291.58692692 -.00000019  00000-0  00000-0 0  9994
2 09416   9.4692 303.4150 0029178 327.6219  34.3562  1.00252369104944
RADUGA 3 [-]            
1 10159U 77071A   19292.01666142 -.00000355  00000-0  00000+0 0  9990
2 10159  10.0557 305.7226 0007199 225.9113 330.1374  1.00312972152655
RADUGA 4 [-]            
1 10987U 78073A   19291.62462742  .00000034  00000-0  00000-0 0  9992
2 10987  10.6320 308.7582 0011923 332.3480  32.4305  1.00199410 95209
RADUGA 5 [-]            
1 11343U 79035A   19291.61212622 -.00000044  00000-0  00000-0 0  9999
2 11343  11.0508 311.1530 0002546 108.8381 255.8920  1.00292126104952
RADUGA 6 [-]            
1 11708U 80016A   19291.71674432  .00000123  00000-0  00000-0 0  9994
2 11708  11.3559 313.7996 0001560 297.5602  78.2755  1.00243478 97766
RADUGA 7 [-]            
1 12003U 80081A   19291.54986199 -.00000257  00000-0  00000+0 0  9990
2 12003  11.5025 315.5121 0010561 258.8236 298.2299  1.00178079 99010
RADUGA 8 [-]            
1 12351U 81027A   19291.71543578  .00000137  00000-0  00000+0 0  9992
2 12351  11.8205 316.2127 0082799 200.4656 165.4484  1.00396169 98106
RADUGA 9 [-]            
1 12618U 81069A   19291.71482513  .00000142  00000-0  00000+0 0  9991
2 12618  11.9807 318.6656 0002155  39.8847 320.6576  1.00259379103934
RADUGA 10 [-]           
1 12897U 81102A   19291.89688017 -.00000001  00000-0  00000-0 0  9990
2 12897  12.0457 319.4868 0002176 147.6536 307.4383  1.00272737 92946
RADUGA 11 [-]           
1 13669U 82113A   19291.85353025 -.00000145  00000-0  00000-0 0  9994
2 13669  13.7775 331.4723 0037762 231.9933 141.6071  0.97709561 97768
RADUGA 12 [-]           
1 13974U 83028A   19291.65175355 -.00000129  00000-0  00000+0 0  9996
2 13974  12.9379 328.2998 0003381   4.5758   7.3401  1.00250784144979
RADUGA 13 [-]           
1 14307U 83088A   19291.88353942 -.00000212  00000-0  00000-0 0  9992
2 14307  13.9635 333.0999 0019129   8.9092 164.0118  0.98175878 95053
RADUGA 14 [-]           
1 14725U 84016A   19291.83731080 -.00000020  00000-0  00000-0 0  9993
2 14725  13.0332 331.6212 0002181  55.9399   6.9562  1.00289468 93708
RADUGA 15 [-]           
1 15057U 84063A   19291.51732299 -.00000358  00000-0  00000+0 0  9995
2 15057  13.1233 332.5906 0001871  84.8479 279.9201  1.00310945116683
RADUGA 16 [-]           
1 15946U 85070A   19291.11629948 -.00000223  00000-0  00000-0 0  9995
2 15946  13.4318 336.9367 0002359 322.9065  41.8700  1.00375400 97826
RADUGA 17 [-]           
1 16250U 85107A   19291.92166150 -.00000092  00000-0  00000+0 0  9998
2 16250  13.5060 338.1881 0009092 165.9132 207.4123  1.00182927127425
RADUGA 18 [-]           
1 16497U 86007A   19292.07549406 -.00000128  00000-0  00000+0 0  9997
2 16497  14.2379 340.6536 0070681 138.7546 227.7406  0.98812075121875
RADUGA 19 [-]           
1 17046U 86082A   19291.51924216 -.00000206  00000-0  00000-0 0  9993
2 17046  14.5198 344.3109 0008710 117.4670 246.3547  0.98461610118954
RADUGA 20 [-]           
1 17611U 87028A   19291.43682166 -.00000156  00000-0  00000-0 0  9992
2 17611  16.4211 347.8698 0025241 107.2838 257.5473  0.95962983114966
RADUGA 21 [-]           
1 18631U 87100A   19291.80327177  .00000104  00000-0  00000-0 0  9997
2 18631  14.5364 345.7246 0002354   6.5695 175.4777  1.00317807116687
RADUGA 22 [-]           
1 19596U 88095A   19291.65445786 -.00000237  00000-0  00000+0 0  9999
2 19596  14.3445 349.5998 0002818  78.6259 286.3723  1.00165620 97307
RADUGA 23 [-]           
1 19928U 89030A   19291.85701969  .00000125  00000-0  00000-0 0  9994
2 19928  14.4148 351.3319 0017373 137.1656 235.5420  1.00271066110453
RADUGA-1 1 [-]          
1 20083U 89048A   19292.19525865 -.00000230  00000-0  00000+0 0  9991
2 20083  15.0555 354.1286 0018858  79.3821 194.5915  0.98711031107254
RADUGA 24 [-]           
1 20367U 89098A   19291.58527977 -.00000337  00000-0  00000+0 0  9997
2 20367  14.8893 353.7689 0002775 321.6798  26.7516  1.00260033108631
RADUGA 25 [-]           
1 20499U 90016A   19291.74826038  .00000098  00000-0  00000-0 0  9997
2 20499  14.6318 354.2876 0001259 347.9296 150.3816  1.00229647108500
RADUGA 26 [-]           
1 21016U 90112A   19291.72032101  .00000018  00000-0  00000-0 0  9990
2 21016  14.7966 357.4475 0006356  27.0968 323.7042  1.00233118105851
RADUGA-1 2 [-]          
1 21038U 90116A   19291.65314933 -.00000191  00000-0  00000-0 0  9999
2 21038  14.8317 357.5405 0006845  43.1131 306.7909  1.00219901 22938
RADUGA 27 [-]           
1 21132U 91014A   19291.85501326  .00000088  00000-0  00000-0 0  9992
2 21132  15.3559 357.4738 0003749 359.7302 355.3978  1.00280323104901
RADUGA 28 [-]           
1 21821U 91087A   19291.58789684 -.00000370  00000-0  00000+0 0  9996
2 21821  14.9584   0.8201 0003475  64.8336 291.0269  1.00269204101956
RADUGA 29 [-]           
1 22557U 93013A   19291.72206571 -.00000090  00000-0  00000-0 0  9999
2 22557  14.9663   4.9475 0003613  40.2691 312.4457  1.00385388 97273
RADUGA 30 [-]           
1 22836U 93062A   19291.89506852 -.00000143  00000-0  00000+0 0  9994
2 22836  14.9138   6.8173 0005601 305.9895 115.3431  1.00283923 95375
RADUGA-1 3 [-]          
1 22981U 94008A   19291.89506852 -.00000151  00000-0  00000+0 0  9995
2 22981  14.9373   7.9961 0002444 344.9597  74.9036  1.00330380 94110
RADUGA 31 [-]           
1 23010U 94012A   19291.78967355  .00000095  00000-0  00000+0 0  9997
2 23010  14.9030   7.9748 0004355  15.5793 337.5637  1.00234770 93940
RADUGA 32 [-]           
1 23448U 94087A   19291.89506852 -.00000132  00000-0  00000+0 0  9990
2 23448  14.7589  10.5828 0005301 227.6056 188.8508  1.00282956108547
RADUGA-1 4 [-]          
1 25642U 99010A   19291.86050913  .00000116  00000-0  00000-0 0  9990
2 25642  14.7541  22.5240 0004310 267.6707  91.8735  1.00220774 75548
RADUGA-1 5 [-]          
1 26477U 00049A   19291.89718080 -.00000090  00000-0  00000-0 0  9992
2 26477  12.5106  25.9303 0003881 347.2141  52.4080  1.00204267 70027
RADUGA-1 6 [-]          
1 26936U 01045A   19292.13006808 -.00000139  00000-0  00000+0 0  9998
2 26936  12.3759  31.7552 0013556 150.9557 208.9684  0.97745249 64790
RADUGA-1 7 [-]          
1 28194U 04010A   19291.73297021 -.00000357  00000-0  00000-0 0  9998
2 28194  10.8244  38.8568 0002658 250.6977 127.3129  1.00240087 57010
RADUGA-1M 1 [-]         
1 32373U 07058A   19292.06961361 -.00000049  00000-0  00000+0 0  9996
2 32373   4.8095  69.7862 0002241 253.8609 103.0069  0.99399250 44133
RADUGA-1 8 [-]          
1 34264U 09010A   19291.44315862  .00000082  00000-0  00000+0 0  9993
2 34264   7.3548  61.3375 0012702 326.2650  32.9010  0.99818275 38879
RADUGA-1M 2 [+]         
1 36358U 10002A   19292.08374582 -.00000182  00000-0  00000+0 0  9999
2 36358   0.0330 250.1487 0003264   8.3703 243.9402  1.00271481 35619
RADUGA-1M 3 [+]         
1 39375U 13062A   19291.98467074  .00000158  00000-0  10000-3 0  9994
2 39375   0.0515  73.8673 0001130 233.1935 109.6407  1.00274275 21733
